[{"OBJECT_NAME":"OOV-CUBE (TUBSAT-30)","OBJECT_ID":"2024-128F","EPOCH":"2026-03-07T15:11:02.918688","MEAN_MOTION":15.02232851,"ECCENTRICITY":0.00546426,"INCLINATION":61.9946,"RA_OF_ASC_NODE":219.5521,"ARG_OF_PERICENTER":111.9163,"MEAN_ANOMALY":248.775,"EPHEMERIS_TYPE":0,"CLASSIFICATION_TYPE":"U","NORAD_CAT_ID":60240,"ELEMENT_SET_NO":999,"REV_AT_EPOCH":9085,"BSTAR":0.00039167775,"MEAN_MOTION_DOT":5.147e-5,"MEAN_MOTION_DDOT":0}]
